{"fetched_at":"2026-07-12T05:53:12.355Z","source":"https://celestrak.org/NORAD/elements/gp.php?NAME=RCM&FORMAT=JSON","constellation":"rcm","records":[{"OBJECT_NAME":"RCM-1","OBJECT_ID":"2019-033A","EPOCH":"2026-07-11T21:27:22.241088","CLASSIFICATION_TYPE":"U","MEAN_MOTION":14.92591085,"ECCENTRICITY":0.000154,"INCLINATION":97.7602,"RA_OF_ASC_NODE":199.9914,"ARG_OF_PERICENTER":92.5185,"MEAN_ANOMALY":25.5697,"EPHEMERIS_TYPE":0,"NORAD_CAT_ID":44322,"ELEMENT_SET_NO":999,"REV_AT_EPOCH":38576,"BSTAR":0.000024756,"MEAN_MOTION_DOT":0.00000199,"MEAN_MOTION_DDOT":0},{"OBJECT_NAME":"RCM-3","OBJECT_ID":"2019-033B","EPOCH":"2026-07-11T19:51:46.252224","CLASSIFICATION_TYPE":"U","MEAN_MOTION":14.92588793,"ECCENTRICITY":0.0001509,"INCLINATION":97.7602,"RA_OF_ASC_NODE":200.0203,"ARG_OF_PERICENTER":89.5678,"MEAN_ANOMALY":270.5714,"EPHEMERIS_TYPE":0,"NORAD_CAT_ID":44323,"ELEMENT_SET_NO":999,"REV_AT_EPOCH":38577,"BSTAR":0.000019758,"MEAN_MOTION_DOT":0.00000147,"MEAN_MOTION_DDOT":0},{"OBJECT_NAME":"RCM-2","OBJECT_ID":"2019-033C","EPOCH":"2026-07-11T20:23:44.631168","CLASSIFICATION_TYPE":"U","MEAN_MOTION":14.92589931,"ECCENTRICITY":0.0001492,"INCLINATION":97.7601,"RA_OF_ASC_NODE":199.9926,"ARG_OF_PERICENTER":91.3373,"MEAN_ANOMALY":268.8018,"EPHEMERIS_TYPE":0,"NORAD_CAT_ID":44324,"ELEMENT_SET_NO":999,"REV_AT_EPOCH":38576,"BSTAR":0.0000024704,"MEAN_MOTION_DOT":-3e-7,"MEAN_MOTION_DDOT":0}]}
